#dP2026  1 22  0  0  0.00000000     289   u+U IGS20 FIT  WHU
## 2402 345600.00000000   300.00000000 61062 0.0000000000000
+  115   G01G02G03G04G05G06G07G08G09G10G11G12G13G14G15G16G17
+        G18G19G21G22G23G24G25G26G27G28G29G30G31G32R02R03R04
+        R05R06R07R08R09R11R12R14R15R16R17R18R19R20R21R22E02
+        E03E04E05E06E07E08E09E10E11E12E13E15E19E21E23E25E26
+        E27E29E30E31E33E34E36C06C07C08C09C10C11C12C13C14C16
+        C19C20C21C22C23C24C25C26C27C28C29C30C32C33C34C35C36
+        C37C38C39C40C41C42C43C44C45C47C48C49C50  0  0  0  0
++         4  4  4  4  4  4  4  4  3  4  3  3  4  4  2  4  4
++         5  4  4  4  3  4  4  4  3  3  4  3  3  4  6  4  5
++         5  7  5  6  5  5  5  5  7  4  3  5  5  5  6  6  3
++         6  6  5  6  6  5  6  5  5  4  5  5  5  4  5  4  4
++         4  5  4  4  4  4  4  7  7  7  7  7  5  5  7  5  7
++         6  5  4  4  4  6  5  5  4  5  6  5  4  6  5  5  6
++         3  6  6  7  6  3  5  5  5  6  6  5  4  0  0  0  0
%c M  cc GPS ccc cccc cccc cccc cccc ccccc ccccc ccccc ccccc
%c cc cc ccc ccc cccc cccc cccc cccc ccccc ccccc ccccc ccccc
%f  1.2500000  1.025000000  0.00000000000  0.000000000000000
%f  0.0000000  0.000000000  0.00000000000  0.000000000000000
%i    0    0    0    0      0      0      0      0         0
%i    0    0    0    0      0      0      0      0         0
/* PCV:igs20_2401 OL/AL:FES2014b NONE     YN ORB:CoN CLK:CoN
*  2026  1 22  8 40  0.00000000
PG01 -14279.389215   8617.686357  20655.853061    344.958583
PG02 -15894.109886  -3884.441584  21427.026080     25.541423
PG03 -22991.081453  12081.099638   5085.503548    595.277632
PG04 -21124.344619   1829.285594 -16077.744265     43.236677
PG05  19309.507484    468.830461 -18418.420725   -224.143517
PG06   4998.507011  25590.334946  -4536.621736   -601.213393
PG07  -6582.923726  22021.750462 -12346.549879   -135.099562
PG08 -25546.799986  -5542.050672   5795.968879    504.945675
PG09 -12684.727616  10458.483487 -20970.170668    773.980558
PG10   2818.369176 -17744.802041  19705.763496   -580.650035
PG11  12579.747414  16328.280799 -16733.799031   -462.014557
PG12  23811.662967  -7711.113219   8567.702686   -603.257928
PG13  22801.085279  13841.097467    961.127869    692.535329
PG14  -5501.454128  19257.434097  17378.102898    733.851452
PG15  25734.163788   2333.830333   5732.695955    382.478992
PG16 -17099.633514  -6096.431148 -19919.228817    196.370487
PG17   3715.700433  17583.777319  19845.138950    -36.520882
PG18   5884.633697 -23096.125954 -11385.767217   -441.109367
PG19  12393.450594  18799.888900  14403.584591    690.268671
PG21  12455.912413   9547.724564 -21422.952746    388.763752
PG22   -148.574485  17074.930627  20752.233923    -52.381290
PG23  15122.857375 -19425.009895   9686.691055    606.230940
PG24  15474.403368  -1733.689126  20999.069022   -149.517741
PG25  19532.814870 -17590.332063  -3060.942487    451.989096
PG26  -7344.444796 -14613.923258 -21115.913658   -311.664039
PG27 -23095.813813 -13080.283843  -4059.317421    -20.230634
PG28  -5372.503388 -25843.852297  -2871.100180   -604.185362
PG29  14991.284276  -8086.768845 -20457.488583   -385.258190
PG30    171.298056  26127.447977  -3711.788590     99.434306
PG31 -11014.731850 -20208.994875 -13263.441718   -167.721744
PG32  -7493.357939 -17477.391457  18890.729595   -148.417759
PR02 -13567.103823   7687.904186 -20159.130457     12.529149
PR03   7102.445837  10933.712023 -21858.149860    137.328826
PR04  21663.601559   7701.194741 -10993.097986    333.478423
PR05  24859.646235    521.731006   5650.543338    162.410525
PR06  14543.572134  -7596.427571  19530.250768     23.013504
PR07  -6837.169299 -10994.852520  22034.400814    117.644080
PR08 -21928.696389  -7436.334869  10814.120752     -2.540695
PR09  14195.627341 -21250.225605    -30.805071    303.548454
PR11  -7817.182578  -7837.493587 -22976.545350     11.231757
PR12 -16827.690857   9738.255830 -16501.447687     64.376470
PR14  -4284.815543  19481.798917  15889.693772     31.193101
PR15   8588.741296   7020.629834  22980.636010     59.919597
PR16  16776.182348  -9871.118797  16510.115778     44.322041
PR17   7968.538186  23773.246349   4812.653761    263.795959
PR18  13353.542854  18584.150897 -11196.246464    243.441035
PR19  12475.753398   2590.414806 -22109.337318     30.532627
PR20   4160.384871 -15201.468363 -20049.571224    228.093479
PR21  -6126.607593 -23512.343041  -7723.165608   -274.448474
PR22 -13591.230291 -17624.081313  12503.515038    107.025877
PE02  27394.729340  -6011.877079   9419.183113     15.797235
PE03  25420.064771   4982.187321  14329.616018      8.384866
PE04 -12764.936126  11473.592808 -24109.364694    -45.584052
PE05  22985.265221  18281.233916  -3712.391115     10.565913
PE06  -3054.011637  17710.509487 -23531.274481   -219.133968
PE07  -6955.069771 -20922.585387  19746.623211    -36.820995
PE08  12967.709130 -11129.943559  24167.584578    -74.374975
PE09   6984.811069  20852.948354 -19820.442959   -179.639317
PE10  -6306.094444  28120.804440   6755.029278   -762.765126
PE11    387.611162  29342.970532  -3800.752774   3705.256500
PE12 -11285.113849  22969.669539  14856.112071    -17.027123
PE13    -51.221368 -29422.976966   3320.055266    -43.377667
PE15  11542.031511 -22485.631776 -15405.652471   -226.709388
PE19 -25602.495868  -6115.891451 -13530.131798   2661.078345
PE21 -16874.578936  -9227.224935 -22511.016310   -713.026925
PE23 -27358.959443   6189.302335  -9461.362974    -19.230118
PE25  16386.350503   9608.316466  22693.761100     25.419184
PE26 -11615.842411 -18809.375347  19700.980973    201.964114
PE27   3875.256236 -19172.279760 -22220.541341   -883.191410
PE29 -23050.811151 -18238.984458   3530.357931   -167.946846
PE30  21654.409437 -17871.051348  -9369.976345   -649.731381
PE31 -22065.070715  17661.870748   8806.768578   -110.453807
PE33 -16123.080254   2132.527462  24743.690271      1.273263
PE34  16117.905983  -2429.950680 -24702.182613   -227.679091
PE36  11307.313138  19048.568870 -19615.154145   -509.051651
PC06  -8043.132637  40273.273646  -8613.589761     37.389975
PC07  -7787.063215  27401.154037  31247.817339    478.357021
PC08 -19619.077063  27120.497241 -25790.241978   -630.470232
PC09  -3235.814663  41627.988666    907.346941    244.849980
PC10   1953.238537  30012.331796  30098.719835     30.706157
PC11 -19403.218472 -16511.196405  11475.261365    839.950461
PC12 -10839.279664 -24922.012688  -6339.261297    212.338708
PC13 -12901.653420  27800.493432 -28862.329994   -286.421441
PC14 -24545.441151  -6126.682380  11718.265337   -323.259822
PC16  -8814.661974  39658.716805  -9997.906799   -855.787317
PC19  27763.112636    152.327133  -2965.451416   -962.265599
PC20  19143.981527  10337.739541 -17487.268251   -955.767984
PC21   2503.104207 -15473.917733  23103.060149   -884.339508
PC22  21280.219701 -10908.477923  14402.500068    435.935730
PC23 -17190.598532  19793.108999  -9583.289130   -501.287668
PC24  -7689.235659 -17734.497593 -20145.867441    -15.846758
PC25 -18104.672732   3215.642245 -21016.457120    963.855642
PC26   5202.294137 -26109.503160  -8337.430441   -581.947607
PC27   2898.034179  23320.612749  15024.540795    588.553192
PC28  -9887.227762  13679.235130  22227.988910    477.714160
PC29  20831.336189   7749.118101 -16877.521741    556.869577
PC30  17603.307191  21562.532194  -1804.539384    373.513716
PC32  -2442.132518  15490.599160 -23065.843034   -956.043314
PC33 -27724.519837    -34.462499   3084.367460   -945.813728
PC34 -17580.625243 -21615.705839   1744.126357    871.475481
PC35  10711.670597 -12693.856633 -22446.695248   -238.084159
PC36  18089.125729  -2459.185919  21112.358651    307.974854
PC37  -6769.932197  26122.755059   7166.054301   -908.288627
PC38 -25781.056365  28755.104274 -16956.875616    273.290064
PC39 -10964.668806  36730.593297 -17191.609212    -15.066776
PC40 -11079.578715  21503.155562  34568.895205   -198.351388
PC41 -22135.417614  10425.720473 -13336.574734   -941.241491
PC42 -17009.297318 -11434.799374  18961.211972   -911.965316
PC43 -20686.132873  -6387.674666  17607.616429    133.568544
PC44  -3724.714059 -23235.849121 -15040.752423    898.772974
PC45  17480.222163 -19179.951300  10213.916664   -654.581123
PC47  20345.949623  15103.505782 -11667.304700   -451.419808
PC48  24186.137903   6557.222782 -12271.906479    694.257845
PC49 -16781.363954   3209.393588  22059.962265   -630.018402
PC50  -7685.849862 -14778.788318  22393.402947   -427.213025
EOF
